SL-16 R/B               
1 19120U 88039B   16295.49986663  .00000031  00000-0  37548-4 0  9990
2 19120  71.0128 109.2503 0022553 199.7931 160.2321 14.19159447472520
COSMOS 1953             
1 19210U 88050A   16294.89698594  .00000477  00000-0  31569-4 0  9990
2 19210  82.5160 265.3265 0013341   4.1451 355.9884 15.04997390520717
SL-8 R/B                
1 19257U 88053B   16294.52586147 -.00000022  00000-0  14926-5 0  9990
2 19257  74.0475 297.1230 0021720 248.8907 260.6190 14.37335224484337
COSMOS 1975             
1 19573U 88093A   16294.89931718  .00000443  00000-0  29967-4 0  9999
2 19573  82.5227 216.9367 0015614  39.1329 321.1023 15.03909350502702
SL-14 R/B               
1 19574U 88093B   16294.71993454  .00000138  00000-0  13945-4 0  9996
2 19574  82.5348   8.9476 0021620 182.0388 293.5215 14.83183426513953
SL-16 R/B               
1 19650U 88102B   16294.91278089 -.00000248  00000-0 -10202-3 0  9990
2 19650  70.9989 158.2211 0014743 196.4173 163.6474 14.15748137441859
INTERCOSMOS 24          
1 20261U 89080A   16295.57144946  .00000057  00000-0  16469-4 0  9991
2 20261  82.5959 164.5385 1203614 287.0194  60.2645 12.55829973236017
SL-14 R/B               
1 20262U 89080C   16295.28461191  .00000149  00000-0  35482-4 0  9992
2 20262  82.5972 209.0892 1237933  81.2291 292.6663 12.48829242231909
DELTA 1 R/B             
1 20323U 89089B   16295.53938865  .00000082  00000-0  30213-4 0  9997
2 20323  97.0769 273.5086 0073332 110.8076 250.0995 14.48153548420180
DELTA 2 R/B(1)          
1 20453U 90008B   16295.14522764  .00002423  00000-0  14211-3 0  9998
2 20453  35.6253 193.9046 0292815 340.9824  18.0145 14.82260132412701
COSMOS 2058             
1 20465U 90010A   16295.52758820  .00000469  00000-0  37998-4 0  9996
2 20465  82.4869 117.2985 0016230  23.7107 336.4859 14.97331749449622
SL-14 R/B               
1 20466U 90010B   16294.90431046  .00000130  00000-0  13591-4 0  9994
2 20466  82.5042 236.4741 0021743  47.4717 312.8328 14.81247072421016
SL-14 R/B               
1 20511U 90018B   16294.82449074  .00000080  00000-0  75012-5 0  9995
2 20511  82.5248 177.0149 0017581 173.1152 233.0104 14.79907624415564
HST                     
1 20580U 90037B   16294.96943287  .00000750  00000-0  35624-4 0  9990
2 20580  28.4690 147.9790 0002901 119.3735 109.7402 15.08556760254034
SL-16 R/B               
1 20625U 90046B   16295.13120355 -.00000308  00000-0 -13528-3 0  9992
2 20625  70.9977 290.8626 0011968 114.5981 245.6390 14.14604330364034
COSMOS 2084             
1 20663U 90055A   16295.14366943  .00000231  00000-0  37607-4 0  9998
2 20663  62.7920 305.8415 0133614  66.5119 294.9951 14.91374467424158
SL-6 R/B(2)             
1 20666U 90055D   16295.19575979  .00000335  00000-0  45689-4 0  9991
2 20666  62.7839 225.1140 0136493  85.7479 275.9198 14.91741784425523
SL-8 R/B                
1 20775U 90078B   16294.94164945  .00006099  00000-0  30713-3 0  9990
2 20775  82.9303 244.1028 0594406 358.7456   1.2199 14.29347404314586
SL-8 R/B                
1 21088U 91006B   16294.93674507  .00000046  00000-0  31831-4 0  9998
2 21088  82.9455 198.0831 0021169 270.8556 160.8045 13.77041219292402
OKEAN-3                 
1 21397U 91039A   16294.83276623  .00000408  00000-0  37384-4 0  9994
2 21397  82.5244   5.7458 0016944 321.5278  38.4732 14.92335419353021
COSMOS 2151             
1 21422U 91042A   16295.54320867  .00000303  00000-0  27575-4 0  9991
2 21422  82.4978 113.5320 0014693  17.3264 342.8453 14.91715700372929
SL-14 R/B               
1 21423U 91042B   16295.14618081  .00000132  00000-0  14541-4 0  9995
2 21423  82.4962 184.7944 0016612 317.3425  42.6497 14.79660926367236
ERS-1                   
1 21574U 91050A   16295.45898084  .00000097  00000-0  46587-4 0  9993
2 21574  98.4282 240.8171 0032220 309.7636  50.0714 14.37530704323289
ARIANE 40 R/B           
1 21610U 91050F   16295.20505023  .00000035  00000-0  25100-4 0  9995
2 21610  98.6413 343.8567 0002172 308.8327  92.2123 14.40766318325708
INTERCOSMOS 25          
1 21819U 91086A   16294.79929071  .00000534  00000-0  10528-3 0  9992
2 21819  82.5667 206.9750 1523237 236.2194 108.4598 12.04412174 83457
SL-14 R/B               
1 21820U 91086B   16294.89176157  .00000280  00000-0  49000-4 0  9990
2 21820  82.5581 259.6154 1578066  54.8253 319.0595 11.93214307 78240
SL-8 R/B                
1 21876U 92008B   16294.94826958  .00000087  00000-0  74334-4 0  9996
2 21876  82.9234 295.0073 0034356 344.4686  30.5660 13.75592462238261
SL-8 R/B                
1 21938U 92020B   16294.76711128  .00000067  00000-0  53432-4 0  9995
2 21938  82.9322 178.2159 0029880 137.9982 283.0652 13.75243630230083
SL-16 R/B               
1 22220U 92076B   16294.92062265 -.00000147  00000-0 -49604-4 0  9997
2 22220  71.0011 202.8874 0015293 276.5561 165.2652 14.16406204236560
SL-16 R/B               
1 22285U 92093B   16295.15403579 -.00000136  00000-0 -45762-4 0  9999
2 22285  71.0228 353.7116 0002980 163.8468 196.2750 14.14998097228725
COSMOS 2228             
1 22286U 92094A   16295.33002484  .00000341  00000-0  34776-4 0  9990
2 22286  82.5220 239.2670 0020159 190.0528 170.0289 14.87545619286982
SL-16 R/B               
1 22566U 93016B   16294.90319741 -.00000269  00000-0 -11422-3 0  9998
2 22566  71.0079 209.1915 0008924 149.1652 210.9996 14.14935348217418
COSMOS 2242             
1 22626U 93024A   16295.01261658  .00000324  00000-0  32841-4 0  9999
2 22626  82.5202 267.2635 0018708 189.9817 170.1032 14.87546001270590
SL-16 R/B               
1 22803U 93059B   16294.94719825  .00000118  00000-0  82781-4 0  9998
2 22803  70.9925  33.5630 0016303  22.7460 337.4383 14.16756741194392
ARIANE 40 R/B           
1 22830U 93061H   16295.14900244 -.00000049  00000-0 -94789-6 0  9999
2 22830  98.8898 299.0229 0009847 265.8785 135.7476 14.31413621204059
COSMOS 2278             
1 23087U 94023A   16294.83655261  .00000114  00000-0  85099-4 0  9997
2 23087  71.0504 139.2240 0010396 227.2003 132.8246 14.13722374160428
SL-16 R/B               
1 23088U 94023B   16294.92030147 -.00000093  00000-0 -23481-4 0  9993
2 23088  70.9994  64.2379 0001316 130.0438 230.0799 14.14643335161431
SL-16 R/B               
1 23343U 94074B   16295.57427119 -.00000005  00000-0  69489-5 0  9995
2 23343  98.1833 323.8865 0008163 113.9770  46.5902 14.76677092181612
SL-16 R/B               
1 23405U 94077B   16294.80411075  .00000096  00000-0  73923-4 0  9992
2 23405  70.9846 358.6983 0004314 299.3139  60.7552 14.15184010131397
ERS-2                   
1 23560U 95021A   16295.10810063  .00002316  00000-0  11228-3 0  9994
2 23560  98.5272 249.8835 0004966  50.2717 309.8952 15.19758934139064
ARIANE 40+ R/B          
1 23561U 95021B   16295.08250257  .00000065  00000-0  37028-4 0  9991
2 23561  98.7812 284.9294 0005943 243.3729 158.0617 14.37772549126896
SL-16 R/B               
1 23705U 95058B   16294.89010655 -.00000123  00000-0 -38981-4 0  9991
2 23705  71.0225 171.0903 0014708 298.1387  61.8249 14.15091994 83032
SL-16 R/B               
1 24298U 96051B   16294.92761018  .00000130  00000-0  96627-4 0  9990
2 24298  70.8432 206.3423 0017452 188.8273 171.2543 14.12441898 37776
ORBVIEW 2 (SEASTAR)     
1 24883U 97037A   16294.82398401  .00000075  00000-0  43054-4 0  9990
2 24883  98.5302  40.8585 0003517  96.0500 264.1085 14.33348077 17611
SL-16 R/B               
1 25400U 98043G   16294.98781064  .00000013  00000-0  23508-4 0  9996
2 25400  98.4544 245.2797 0008696 277.1651  82.8540 14.25393961950993
SL-16 R/B               
1 25407U 98045B   16294.91433489 -.00000250  00000-0 -10279-3 0  9998
2 25407  71.0120 184.2522 0009274 224.6552 135.3825 14.15755586942046
ISS (ZARYA)             
1 25544U 98067A   16295.47548196  .00003669  00000-0  62301-4 0  9997
2 25544  51.6433 148.1441 0007108  95.8828 336.0478 15.54287606 24633
SL-8 R/B                
1 25723U 99022C   16294.64294425  .00006630  00000-0  12069-3 0  9995
2 25723  48.4184   1.3766 0012053 319.4353 198.6148 15.50592567969288
CZ-4B R/B               
1 25732U 99025C   16295.55843499 -.00000013  00000-0  15810-4 0  9998
2 25732  98.9822 288.5474 0038221  51.5083  54.4385 14.17618696902824
OKEAN-O                 
1 25860U 99039A   16295.52054981  .00000124  00000-0  25413-4 0  9994
2 25860  98.1595 271.5271 0001402 110.0773 250.0587 14.76414419928615
SL-16 R/B               
1 25861U 99039B   16294.91441738  .00000073  00000-0  17380-4 0  9994
2 25861  98.0708 259.1149 0016735 129.0624 290.2376 14.78358493930310
TERRA                   
1 25994U 99068A   16295.23496202 -.00000304  00000-0 -57464-4 0  9991
2 25994  98.2016   7.6968 0001271  88.0008 272.1192 14.57117318895877
SL-14 R/B               
1 26874U 01032B   16294.87592612  .00032251 -78074-6  11362-3 0  9997
2 26874  82.4557 143.5313 0007264  80.5702 279.6390 15.88812609855542
ENVISAT                 
1 27386U 02009A   16295.42520881  .00000036  00000-0  25917-4 0  9997
2 27386  98.2676 344.2244 0001030  85.0159 275.1145 14.37879322766764
IDEFIX & ARIANE 42P R/B 
1 27422U 02021B   16295.08566393 -.00000031  00000-0  35961-5 0  9999
2 27422  98.2291 302.6440 0011464 221.4194 138.6121 14.29251190752525
AQUA                    
1 27424U 02022A   16295.14962963  .00000193  00000-0  52908-4 0  9999
2 27424  98.2099 233.7914 0001987 104.7199  68.4824 14.57102841769460
CZ-4B R/B               
1 27432U 02024C   16295.00173464  .00000000  00000-0  23695-4 0  9993
2 27432  98.9538 261.6436 0050411 350.5953  50.6495 14.14027910744992
MIDORI II (ADEOS-II)    
1 27597U 02056A   16289.45849390  .00000109  00000-0  61444-4 0  9994
2 27597  98.3364 263.8833 0001214  34.9723 325.1538 14.27240947720516
H-2A R/B                
1 27601U 02056E   16295.11878690  .00000056  00000-0  36246-4 0  9998
2 27601  98.4074   4.8044 0071016 284.2406 131.7159 14.31741431723605
